IRIDIUM 63              
1 25286U 98021B   25193.60366177  .00000257  00000+0  80711-4 0  9993
2 25286  86.3955  71.4680 0002095  90.8204 269.3233 14.36559910427493
IRIDIUM 69              
1 25319U 98026A   25193.39943614  .00000336  00000+0  98498-4 0  9997
2 25319  86.3957  84.7691 0001409   7.0921 353.0298 14.40987001426699
IRIDIUM 71              
1 25320U 98026B   25193.61127067  .00000255  00000+0  73050-4 0  9997
2 25320  86.3952  79.3651 0003213  44.7651 315.3808 14.41174027427253
IRIDIUM 73              
1 25344U 98032C   25193.49623645  .00000342  00000+0  80046-4 0  9999
2 25344  86.4395  36.0633 0001557  88.7208 271.4176 14.51734965434236
IRIDIUM 82              
1 25467U 98051A   25193.22822190  .00016706  00000+0  46647-3 0  9992
2 25467  86.3664  97.4177 0082344 199.2905 160.5225 15.33148736427791
